ONEWEB-0346             
1 49212U 21083AC  24035.82401076  .00000005  00000+0 -19779-4 0  9996
2 49212  87.9245 147.2858 0001499 122.8534 237.2743 13.18683950116198
ONEWEB-0348             
1 49213U 21083AD  24035.63821572  .00000019  00000+0  14429-4 0  9994
2 49213  87.9156  86.3301 0001156 103.9825 256.1437 13.20773225122824
ONEWEB-0350             
1 49214U 21083AE  24035.79918102  .00000218  00000+0  56102-3 0  9992
2 49214  87.9010 132.0805 0001346 105.0481 255.0797 13.13468458117590
ONEWEB-0351             
1 49215U 21083AF  24035.63191888  .00000052  00000+0  95736-4 0  9993
2 49215  87.9151  86.3365 0002189  88.6059 271.5325 13.20771198122785
ONEWEB-0352             
1 49216U 21083AG  24035.78013630  .00000244  00000+0  63258-3 0  9994
2 49216  87.9012 132.1113 0001908  98.7943 261.3402 13.13469695117689
ONEWEB-0354             
1 49217U 21083AH  24035.65716538  .00000035  00000+0  54633-4 0  9994
2 49217  87.9155  86.3118 0001670  88.3501 271.7824 13.20771093122825
ONEWEB-0355             
1 49218U 21083AJ  24035.81028581  .00000099  00000+0  23666-3 0  9998
2 49218  87.9014 132.1049 0001691  99.2703 260.8617 13.13467416117568
ONEWEB-0357             
1 49219U 21083AK  24035.65400406  .00000043  00000+0  74682-4 0  9995
2 49219  87.9152  86.3349 0001778  97.8629 262.2706 13.20771451122827
